{
    "links": {
        "self": "http://www.neowsapp.com/rest/v1/neo/3308949?api_key=iIulBulltgU6a56xZRHN4H3l9WmuAYTsLGpBGhQ2"
    },
    "id": "3308949",
    "neo_reference_id": "3308949",
    "name": "(2005 YD)",
    "designation": "2005 YD",
    "nasa_jpl_url": "http://ssd.jpl.nasa.gov/sbdb.cgi?sstr=3308949",
    "absolute_magnitude_h": 24.5,
    "estimated_diameter": {
        "kilometers": {
            "estimated_diameter_min": 0.0334622374,
            "estimated_diameter_max": 0.0748238376
        },
        "meters": {
            "estimated_diameter_min": 33.4622374455,
            "estimated_diameter_max": 74.8238376074
        },
        "miles": {
            "estimated_diameter_min": 0.0207924639,
            "estimated_diameter_max": 0.0464933628
        },
        "feet": {
            "estimated_diameter_min": 109.7842471007,
            "estimated_diameter_max": 245.4850393757
        }
    },
    "is_potentially_hazardous_asteroid": false,
    "close_approach_data": [
        {
            "close_approach_date": "1937-09-20",
            "close_approach_date_full": "1937-Sep-20 03:29",
            "epoch_date_close_approach": -1018729860000,
            "relative_velocity": {
                "kilometers_per_second": "10.1548993393",
                "kilometers_per_hour": "36557.637621525",
                "miles_per_hour": "22715.4943321081"
            },
            "miss_distance": {
                "astronomical": "0.0284798111",
                "lunar": "11.0786465179",
                "kilometers": "4260519.078562357",
                "miles": "2647363.7955282466"
            },
            "orbiting_body": "Mars"
        },
        {
            "close_approach_date": "2003-08-24",
            "close_approach_date_full": "2003-Aug-24 09:21",
            "epoch_date_close_approach": 1061716860000,
            "relative_velocity": {
                "kilometers_per_second": "22.1526471557",
                "kilometers_per_hour": "79749.5297604404",
                "miles_per_hour": "49553.2564225359"
            },
            "miss_distance": {
                "astronomical": "0.4944951416",
                "lunar": "192.3586100824",
                "kilometers": "73975419.908708392",
                "miles": "45966194.4505121296"
            },
            "orbiting_body": "Earth"
        },
        {
            "close_approach_date": "2005-12-14",
            "close_approach_date_full": "2005-Dec-14 02:17",
            "epoch_date_close_approach": 1134526620000,
            "relative_velocity": {
                "kilometers_per_second": "8.9353972184",
                "kilometers_per_hour": "32167.4299862395",
                "miles_per_hour": "19987.5900378386"
            },
            "miss_distance": {
                "astronomical": "0.0383212473",
                "lunar": "14.9069651997",
                "kilometers": "5732776.971823251",
                "miles": "3562182.4296968238"
            },
            "orbiting_body": "Earth"
        },
        {
            "close_approach_date": "2008-05-21",
            "close_approach_date_full": "2008-May-21 23:26",
            "epoch_date_close_approach": 1211412360000,
            "relative_velocity": {
                "kilometers_per_second": "9.9512848435",
                "kilometers_per_hour": "35824.6254367591",
                "miles_per_hour": "22260.029066524"
            },
            "miss_distance": {
                "astronomical": "0.080987997",
                "lunar": "31.504330833",
                "kilometers": "12115631.84676639",
                "miles": "7528304.537460582"
            },
            "orbiting_body": "Mars"
        }
    ],
    "orbital_data": {
        "orbit_id": "11",
        "orbit_determination_date": "2017-04-06 09:09:37",
        "first_observation_date": "2005-12-21",
        "last_observation_date": "2006-01-03",
        "data_arc_in_days": 13,
        "observations_used": 28,
        "orbit_uncertainty": "8",
        "minimum_orbit_intersection": ".0218725",
        "jupiter_tisserand_invariant": "4.164",
        "epoch_osculation": "2453727.5",
        "eccentricity": ".4258249458821102",
        "semi_major_axis": "1.653043413898685",
        "inclination": "4.784741275392789",
        "ascending_node_longitude": "90.70075425941089",
        "orbital_period": "776.2914738836349",
        "perihelion_distance": ".9491362916344986",
        "perihelion_argument": "314.1432333133735",
        "aphelion_distance": "2.356950536162871",
        "perihelion_time": "2453689.526463668784",
        "mean_anomaly": "17.60997452522189",
        "mean_motion": ".4637433388247718",
        "equinox": "J2000",
        "orbit_class": {
            "orbit_class_type": "APO",
            "orbit_class_description": "Near-Earth asteroid orbits which cross the Earth’s orbit similar to that of 1862 Apollo",
            "orbit_class_range": "a (semi-major axis) > 1.0 AU; q (perihelion) < 1.017 AU"
        }
    },
    "is_sentry_object": false
}